[{"OBJECT_NAME":"STARLINK-4595","OBJECT_ID":"2022-104AR","EPOCH":"2025-09-12T11:14:48.571008","MEAN_MOTION":15.0883611,"ECCENTRICITY":0.00018503,"INCLINATION":53.2216,"RA_OF_ASC_NODE":313.9074,"ARG_OF_PERICENTER":90.2376,"MEAN_ANOMALY":269.8828,"EPHEMERIS_TYPE":0,"CLASSIFICATION_TYPE":"U","NORAD_CAT_ID":53627,"ELEMENT_SET_NO":999,"REV_AT_EPOCH":16885,"BSTAR":-0.00010656749,"MEAN_MOTION_DOT":-1.984e-5,"MEAN_MOTION_DDOT":0},{"OBJECT_NAME":"STARLINK-4600","OBJECT_ID":"2022-104AS","EPOCH":"2025-09-12T10:53:33.518688","MEAN_MOTION":15.08844409,"ECCENTRICITY":0.00014777,"INCLINATION":53.2165,"RA_OF_ASC_NODE":313.8163,"ARG_OF_PERICENTER":86.8585,"MEAN_ANOMALY":273.2576,"EPHEMERIS_TYPE":0,"CLASSIFICATION_TYPE":"U","NORAD_CAT_ID":53628,"ELEMENT_SET_NO":999,"REV_AT_EPOCH":16885,"BSTAR":5.8934308e-5,"MEAN_MOTION_DOT":6.5e-6,"MEAN_MOTION_DDOT":0},{"OBJECT_NAME":"STARLINK-4602","OBJECT_ID":"2022-104AT","EPOCH":"2025-09-11T11:18:41.666976","MEAN_MOTION":15.08837143,"ECCENTRICITY":0.0001354,"INCLINATION":53.2185,"RA_OF_ASC_NODE":318.3449,"ARG_OF_PERICENTER":88.8183,"MEAN_ANOMALY":271.2964,"EPHEMERIS_TYPE":0,"CLASSIFICATION_TYPE":"U","NORAD_CAT_ID":53629,"ELEMENT_SET_NO":999,"REV_AT_EPOCH":16870,"BSTAR":-2.7847007e-5,"MEAN_MOTION_DOT":-7.31e-6,"MEAN_MOTION_DDOT":0},{"OBJECT_NAME":"STARLINK-4598","OBJECT_ID":"2022-104AU","EPOCH":"2025-09-12T10:24:34.231392","MEAN_MOTION":15.08829606,"ECCENTRICITY":8.825e-5,"INCLINATION":53.2191,"RA_OF_ASC_NODE":304.417,"ARG_OF_PERICENTER":94.3258,"MEAN_ANOMALY":265.7835,"EPHEMERIS_TYPE":0,"CLASSIFICATION_TYPE":"U","NORAD_CAT_ID":53630,"ELEMENT_SET_NO":999,"REV_AT_EPOCH":16915,"BSTAR":-5.4070448e-5,"MEAN_MOTION_DOT":-1.148e-5,"MEAN_MOTION_DDOT":0},{"OBJECT_NAME":"STARLINK-4599","OBJECT_ID":"2022-104AV","EPOCH":"2025-09-12T10:48:14.981760","MEAN_MOTION":15.08837405,"ECCENTRICITY":0.00014411,"INCLINATION":53.2143,"RA_OF_ASC_NODE":313.792,"ARG_OF_PERICENTER":86.0664,"MEAN_ANOMALY":274.0493,"EPHEMERIS_TYPE":0,"CLASSIFICATION_TYPE":"U","NORAD_CAT_ID":53631,"ELEMENT_SET_NO":999,"REV_AT_EPOCH":16885,"BSTAR":1.7018484e-5,"MEAN_MOTION_DOT":-1.7e-7,"MEAN_MOTION_DDOT":0},{"OBJECT_NAME":"STARLINK-4606","OBJECT_ID":"2022-104AW","EPOCH":"2025-09-12T13:23:20.919264","MEAN_MOTION":15.08832792,"ECCENTRICITY":9.941e-5,"INCLINATION":53.2163,"RA_OF_ASC_NODE":303.7711,"ARG_OF_PERICENTER":78.953,"MEAN_ANOMALY":281.1574,"EPHEMERIS_TYPE":0,"CLASSIFICATION_TYPE":"U","NORAD_CAT_ID":53632,"ELEMENT_SET_NO":999,"REV_AT_EPOCH":16933,"BSTAR":-1.2875871e-5,"MEAN_MOTION_DOT":-4.93e-6,"MEAN_MOTION_DDOT":0},{"OBJECT_NAME":"STARLINK-4593","OBJECT_ID":"2022-104AX","EPOCH":"2025-09-12T10:17:51.934848","MEAN_MOTION":15.08839708,"ECCENTRICITY":0.00011751,"INCLINATION":53.2147,"RA_OF_ASC_NODE":304.3872,"ARG_OF_PERICENTER":86.7647,"MEAN_ANOMALY":273.348,"EPHEMERIS_TYPE":0,"CLASSIFICATION_TYPE":"U","NORAD_CAT_ID":53633,"ELEMENT_SET_NO":999,"REV_AT_EPOCH":16898,"BSTAR":3.6662004e-5,"MEAN_MOTION_DOT":2.96e-6,"MEAN_MOTION_DDOT":0},{"OBJECT_NAME":"STARLINK-4592","OBJECT_ID":"2022-104AY","EPOCH":"2025-09-12T13:12:42.219360","MEAN_MOTION":15.0884753,"ECCENTRICITY":5.244e-5,"INCLINATION":53.2214,"RA_OF_ASC_NODE":303.728,"ARG_OF_PERICENTER":96.1,"MEAN_ANOMALY":264.0052,"EPHEMERIS_TYPE":0,"CLASSIFICATION_TYPE":"U","NORAD_CAT_ID":53634,"ELEMENT_SET_NO":999,"REV_AT_EPOCH":16933,"BSTAR":-6.5773564e-5,"MEAN_MOTION_DOT":-1.334e-5,"MEAN_MOTION_DDOT":0},{"OBJECT_NAME":"STARLINK-4587","OBJECT_ID":"2022-104AZ","EPOCH":"2025-09-12T10:07:15.371616","MEAN_MOTION":15.0883851,"ECCENTRICITY":0.0001435,"INCLINATION":53.2165,"RA_OF_ASC_NODE":304.3453,"ARG_OF_PERICENTER":87.1424,"MEAN_ANOMALY":272.9732,"EPHEMERIS_TYPE":0,"CLASSIFICATION_TYPE":"U","NORAD_CAT_ID":53635,"ELEMENT_SET_NO":999,"REV_AT_EPOCH":16931,"BSTAR":5.5480454e-5,"MEAN_MOTION_DOT":5.95e-6,"MEAN_MOTION_DDOT":0},{"OBJECT_NAME":"STARLINK-4586","OBJECT_ID":"2022-104BA","EPOCH":"2025-09-12T09:51:21.773088","MEAN_MOTION":15.08890851,"ECCENTRICITY":9.03e-5,"INCLINATION":53.2191,"RA_OF_ASC_NODE":304.2768,"ARG_OF_PERICENTER":95.0845,"MEAN_ANOMALY":265.0251,"EPHEMERIS_TYPE":0,"CLASSIFICATION_TYPE":"U","NORAD_CAT_ID":53636,"ELEMENT_SET_NO":999,"REV_AT_EPOCH":16931,"BSTAR":0.001538749,"MEAN_MOTION_DOT":0.0002432,"MEAN_MOTION_DDOT":0},{"OBJECT_NAME":"STARLINK-4396","OBJECT_ID":"2022-104BB","EPOCH":"2025-09-12T13:51:15.067872","MEAN_MOTION":15.0883781,"ECCENTRICITY":0.00015288,"INCLINATION":53.2203,"RA_OF_ASC_NODE":303.8834,"ARG_OF_PERICENTER":85.2499,"MEAN_ANOMALY":274.8668,"EPHEMERIS_TYPE":0,"CLASSIFICATION_TYPE":"U","NORAD_CAT_ID":53637,"ELEMENT_SET_NO":999,"REV_AT_EPOCH":16933,"BSTAR":2.2320358e-5,"MEAN_MOTION_DOT":6.7e-7,"MEAN_MOTION_DDOT":0},{"OBJECT_NAME":"STARLINK-4594","OBJECT_ID":"2022-104BC","EPOCH":"2025-09-12T12:35:35.143584","MEAN_MOTION":15.08839792,"ECCENTRICITY":0.00012958,"INCLINATION":53.2165,"RA_OF_ASC_NODE":303.5698,"ARG_OF_PERICENTER":81.928,"MEAN_ANOMALY":278.1859,"EPHEMERIS_TYPE":0,"CLASSIFICATION_TYPE":"U","NORAD_CAT_ID":53638,"ELEMENT_SET_NO":999,"REV_AT_EPOCH":16933,"BSTAR":9.514817e-6,"MEAN_MOTION_DOT":-1.36e-6,"MEAN_MOTION_DDOT":0},{"OBJECT_NAME":"STARLINK-4422","OBJECT_ID":"2022-104BD","EPOCH":"2025-09-11T09:55:15.244896","MEAN_MOTION":15.08838809,"ECCENTRICITY":0.00014167,"INCLINATION":53.2176,"RA_OF_ASC_NODE":308.7133,"ARG_OF_PERICENTER":84.8693,"MEAN_ANOMALY":275.2461,"EPHEMERIS_TYPE":0,"CLASSIFICATION_TYPE":"U","NORAD_CAT_ID":53639,"ELEMENT_SET_NO":999,"REV_AT_EPOCH":16899,"BSTAR":5.7855959e-5,"MEAN_MOTION_DOT":6.33e-6,"MEAN_MOTION_DDOT":0},{"OBJECT_NAME":"STARLINK-4597","OBJECT_ID":"2022-104BE","EPOCH":"2025-09-11T09:49:57.304992","MEAN_MOTION":15.08847286,"ECCENTRICITY":0.00013302,"INCLINATION":53.2171,"RA_OF_ASC_NODE":308.6913,"ARG_OF_PERICENTER":85.7743,"MEAN_ANOMALY":274.3401,"EPHEMERIS_TYPE":0,"CLASSIFICATION_TYPE":"U","NORAD_CAT_ID":53640,"ELEMENT_SET_NO":999,"REV_AT_EPOCH":16916,"BSTAR":6.589431e-5,"MEAN_MOTION_DOT":7.61e-6,"MEAN_MOTION_DDOT":0},{"OBJECT_NAME":"STARLINK-4588","OBJECT_ID":"2022-104BF","EPOCH":"2025-09-12T13:07:25.419936","MEAN_MOTION":15.08837774,"ECCENTRICITY":0.00014297,"INCLINATION":53.2186,"RA_OF_ASC_NODE":303.6993,"ARG_OF_PERICENTER":89.3178,"MEAN_ANOMALY":270.7978,"EPHEMERIS_TYPE":0,"CLASSIFICATION_TYPE":"U","NORAD_CAT_ID":53641,"ELEMENT_SET_NO":999,"REV_AT_EPOCH":16933,"BSTAR":4.2835452e-5,"MEAN_MOTION_DOT":3.94e-6,"MEAN_MOTION_DDOT":0},{"OBJECT_NAME":"STARLINK-4622","OBJECT_ID":"2022-105A","EPOCH":"2025-09-12T09:59:49.833600","MEAN_MOTION":15.01255824,"ECCENTRICITY":0.00026135,"INCLINATION":97.6046,"RA_OF_ASC_NODE":135.6847,"ARG_OF_PERICENTER":83.2996,"MEAN_ANOMALY":276.8526,"EPHEMERIS_TYPE":0,"CLASSIFICATION_TYPE":"U","NORAD_CAT_ID":53648,"ELEMENT_SET_NO":999,"REV_AT_EPOCH":16649,"BSTAR":1.3799291e-5,"MEAN_MOTION_DOT":1.19e-6,"MEAN_MOTION_DDOT":0}]
