STARLINK-4595           
1 53627U 22104AR  25255.46861772 -.00001984  00000+0 -10657-3 0  9997
2 53627  53.2216 313.9074 0001850  90.2376 269.8828 15.08836110168856
STARLINK-4600           
1 53628U 22104AS  25255.45386017  .00000650  00000+0  58934-4 0  9999
2 53628  53.2165 313.8163 0001477  86.8585 273.2576 15.08844409168855
STARLINK-4602           
1 53629U 22104AT  25254.47131559 -.00000731  00000+0 -27847-4 0  9991
2 53629  53.2185 318.3449 0001354  88.8183 271.2964 15.08837143168705
STARLINK-4598           
1 53630U 22104AU  25255.43372953 -.00001148  00000+0 -54070-4 0  9996
2 53630  53.2191 304.4170 0000882  94.3258 265.7835 15.08829606169151
STARLINK-4599           
1 53631U 22104AV  25255.45017340 -.00000017  00000+0  17018-4 0  9999
2 53631  53.2143 313.7920 0001441  86.0664 274.0493 15.08837405168851
STARLINK-4606           
1 53632U 22104AW  25255.55788101 -.00000493  00000+0 -12876-4 0  9997
2 53632  53.2163 303.7711 0000994  78.9530 281.1574 15.08832792169332
STARLINK-4593           
1 53633U 22104AX  25255.42907332  .00000296  00000+0  36662-4 0  9991
2 53633  53.2147 304.3872 0001175  86.7647 273.3480 15.08839708168981
STARLINK-4592           
1 53634U 22104AY  25255.55048865 -.00001334  00000+0 -65774-4 0  9995
2 53634  53.2214 303.7280 0000524  96.1000 264.0052 15.08847530169332
STARLINK-4587           
1 53635U 22104AZ  25255.42170569  .00000595  00000+0  55480-4 0  9998
2 53635  53.2165 304.3453 0001435  87.1424 272.9732 15.08838510169318
STARLINK-4586           
1 53636U 22104BA  25255.41066867  .00024320  00000+0  15387-2 0  9995
2 53636  53.2191 304.2768 0000903  95.0845 265.0251 15.08890851169315
STARLINK-4396           
1 53637U 22104BB  25255.57725773  .00000067  00000+0  22320-4 0  9990
2 53637  53.2203 303.8834 0001528  85.2499 274.8668 15.08837810169337
STARLINK-4594           
1 53638U 22104BC  25255.52471231 -.00000136  00000+0  95148-5 0  9990
2 53638  53.2165 303.5698 0001295  81.9280 278.1859 15.08839792169332
STARLINK-4422           
1 53639U 22104BD  25254.41337089  .00000633  00000+0  57856-4 0  9994
2 53639  53.2176 308.7133 0001416  84.8693 275.2461 15.08838809168997
STARLINK-4597           
1 53640U 22104BE  25254.40969103  .00000761  00000+0  65894-4 0  9996
2 53640  53.2171 308.6913 0001330  85.7743 274.3401 15.08847286169163
STARLINK-4588           
1 53641U 22104BF  25255.54682199  .00000394  00000+0  42835-4 0  9992
2 53641  53.2186 303.6993 0001429  89.3178 270.7978 15.08837774169333
STARLINK-4622           
1 53648U 22105A   25255.41654900  .00000119  00000+0  13799-4 0  9997
2 53648  97.6046 135.6847 0002613  83.2996 276.8526 15.01255824166498
